{
    "links": {
        "self": "http://www.neowsapp.com/rest/v1/neo/3265908?api_key=iIulBulltgU6a56xZRHN4H3l9WmuAYTsLGpBGhQ2"
    },
    "id": "3265908",
    "neo_reference_id": "3265908",
    "name": "(2005 BD)",
    "designation": "2005 BD",
    "nasa_jpl_url": "http://ssd.jpl.nasa.gov/sbdb.cgi?sstr=3265908",
    "absolute_magnitude_h": 25.1,
    "estimated_diameter": {
        "kilometers": {
            "estimated_diameter_min": 0.0253837029,
            "estimated_diameter_max": 0.0567596853
        },
        "meters": {
            "estimated_diameter_min": 25.3837029364,
            "estimated_diameter_max": 56.7596852866
        },
        "miles": {
            "estimated_diameter_min": 0.0157726969,
            "estimated_diameter_max": 0.0352688224
        },
        "feet": {
            "estimated_diameter_min": 83.279867942,
            "estimated_diameter_max": 186.2194458756
        }
    },
    "is_potentially_hazardous_asteroid": false,
    "close_approach_data": [
        {
            "close_approach_date": "2005-01-13",
            "close_approach_date_full": "2005-Jan-13 17:03",
            "epoch_date_close_approach": 1105635780000,
            "relative_velocity": {
                "kilometers_per_second": "7.6017629193",
                "kilometers_per_hour": "27366.3465096549",
                "miles_per_hour": "17004.3834742908"
            },
            "miss_distance": {
                "astronomical": "0.0370172216",
                "lunar": "14.3996992024",
                "kilometers": "5537697.504677992",
                "miles": "3440965.6697086096"
            },
            "orbiting_body": "Earth"
        }
    ],
    "orbital_data": {
        "orbit_id": "7",
        "orbit_determination_date": "2017-04-06 09:11:35",
        "first_observation_date": "2005-01-16",
        "last_observation_date": "2005-01-19",
        "data_arc_in_days": 3,
        "observations_used": 50,
        "orbit_uncertainty": "8",
        "minimum_orbit_intersection": ".0363531",
        "jupiter_tisserand_invariant": "3.765",
        "epoch_osculation": "2453387.5",
        "eccentricity": ".4698199441724231",
        "semi_major_axis": "1.923624476776528",
        "inclination": "9.175993039116452",
        "ascending_node_longitude": "112.376212199098",
        "orbital_period": "974.4933249880135",
        "perihelion_distance": "1.019867332488673",
        "perihelion_argument": "359.0134978268495",
        "aphelion_distance": "2.827381621064383",
        "perihelion_time": "2453382.635158921591",
        "mean_anomaly": "1.797182949661335",
        "mean_motion": ".3694227459222751",
        "equinox": "J2000",
        "orbit_class": {
            "orbit_class_type": "AMO",
            "orbit_class_description": "Near-Earth asteroid orbits similar to that of 1221 Amor",
            "orbit_class_range": "1.017 AU < q (perihelion) < 1.3 AU"
        }
    },
    "is_sentry_object": false
}